     3.00           N                   E                   RINEX VERSION / TYPE
BRD_USR             ESA                 20190105 191940  UTCPGM / RUN BY / DATE
 GAL   4.8750E+01 -1.9531E-02 -1.1597E-03  0.0000E+00       IONOSPHERIC CORR
GAUT  0.0000000000E+00 0.000000000E+00 518400 2034 GSTB   0 TIME SYSTEM CORR
GPGA -2.6484485716E-09 2.664535259E-15      0 2035 GSTB   0 TIME SYSTEM CORR
                                                            END OF HEADER
E27 2019 01 05 17 00 00 5.557643598877E-04-7.744915819785E-12 0.000000000000E+00
     7.000000000000E+01 1.682812500000E+02 2.341883263124E-09 2.776929132919E+00
     7.770955562592E-06 2.079516416416E-04 1.060031354427E-05 5.440636873245E+03
     5.796000000000E+05 5.774199962616E-08-2.828298597189E+00 2.235174179077E-08
     9.898927961626E-01 1.281250000000E+02-9.383070496949E-01-5.115570226891E-09
    -1.567922453121E-10 5.210000000000E+02 2.034000000000E+03 0.000000000000E+00
     3.120000000000E+00 0.000000000000E+00-2.561137080193E-09-3.026798367500E-09
     5.802850000000E+05 0.000000000000E+00 0.000000000000E+00 0.000000000000E+00
E36 2019 01 05 17 00 00 7.631704793312E-04-4.533262654149E-12 0.000000000000E+00
     7.000000000000E+01-1.863125000000E+02 2.731899508866E-09-2.561977086275E+00
    -8.706003427505E-06 3.242478705943E-04 2.495944499969E-06 5.440601913452E+03
     5.796000000000E+05 8.568167686462E-08-7.453430070308E-01-2.607703208923E-08
     9.852286227268E-01 2.971250000000E+02-1.637882281331E+00-5.620948420778E-09
    -2.892977646988E-10 5.210000000000E+02 2.034000000000E+03 0.000000000000E+00
     3.120000000000E+00 4.550000000000E+02 1.164153218269E-09 1.396983861923E-09
     5.802850000000E+05 0.000000000000E+00 0.000000000000E+00 0.000000000000E+00
E01 2019 01 05 17 00 00-5.144024617039E-04-8.228084880102E-12 0.000000000000E+00
     7.000000000000E+01 1.917812500000E+02 2.311882013451E-09 1.100075132351E+00
     8.836388587952E-06 1.156007638201E-04 1.043826341629E-05 5.440632030487E+03
     5.796000000000E+05 1.490116119385E-08-2.825708592894E+00-7.450580596924E-09
     9.903557863280E-01 1.264687500000E+02-8.500254588123E-01-5.124142012511E-09
    -1.310768884500E-10 2.580000000000E+02 2.034000000000E+03 0.000000000000E+00
     3.120000000000E+00 0.000000000000E+00-4.656612873077E-09 0.000000000000E+00
     5.803000000000E+05 0.000000000000E+00 0.000000000000E+00 0.000000000000E+00
E02 2019 01 05 17 00 00 4.209170583636E-05 1.548983163957E-12 0.000000000000E+00
     7.000000000000E+01 1.489062500000E+02 2.408671759418E-09-2.620866808205E+00
     6.929039955139E-06 2.680487232283E-04 1.124292612076E-05 5.440626543045E+03
     5.796000000000E+05 7.450580596924E-09-2.825741204263E+00-1.862645149231E-08
     9.903638908941E-01 1.107500000000E+02-2.723886461947E-01-5.133785271335E-09
    -1.375057276655E-10 2.580000000000E+02 2.034000000000E+03 0.000000000000E+00
     3.120000000000E+00 0.000000000000E+00-6.286427378654E-09 0.000000000000E+00
     5.803000000000E+05 0.000000000000E+00 0.000000000000E+00 0.000000000000E+00
E03 2019 01 05 17 00 00-1.188335008919E-04-4.320099833421E-12 0.000000000000E+00
     7.000000000000E+01 2.587500000000E+01 3.806944288796E-09-1.451576011030E+00
     1.257285475731E-06 2.770331921056E-04 4.572793841362E-06 5.440607095718E+03
     5.796000000000E+05-4.470348358154E-08 1.365146259387E+00-1.862645149231E-09
     9.521737356409E-01 2.398750000000E+02 6.484184390821E-01-5.781312243432E-09
     4.528760069606E-10 2.580000000000E+02 2.034000000000E+03 0.000000000000E+00
     3.120000000000E+00 0.000000000000E+00-1.629814505577E-09 0.000000000000E+00
     5.803000000000E+05 0.000000000000E+00 0.000000000000E+00 0.000000000000E+00
E05 2019 01 05 17 00 00 1.301963347942E-04-6.579625733139E-12 0.000000000000E+00
     7.000000000000E+01 2.759375000000E+01 3.782657562871E-09-1.577119864801E+00
     1.342967152596E-06 1.500779762864E-04 4.874542355537E-06 5.440604879379E+03
     5.796000000000E+05 2.048909664154E-08 1.365129811799E+00-1.862645149231E-09
     9.521877928207E-01 2.349687500000E+02 1.561427091363E+00-5.702737541909E-09
     4.350181202508E-10 2.580000000000E+02 2.034000000000E+03 0.000000000000E+00
     3.120000000000E+00 0.000000000000E+00-1.164153218269E-09 0.000000000000E+00
     5.803000000000E+05 0.000000000000E+00 0.000000000000E+00 0.000000000000E+00
E08 2019 01 05 17 00 00 6.429299013689E-03-7.560174708487E-12 0.000000000000E+00
     7.000000000000E+01 2.843750000000E+01 3.714797593373E-09-2.094732999409E+00
     1.281499862671E-06 2.297313185409E-04 4.701316356659E-06 5.440604980469E+03
     5.796000000000E+05 3.166496753693E-08 1.356503923079E+00 4.284083843231E-08
     9.581595838783E-01 2.384062500000E+02 5.078063067310E-01-5.771668984609E-09
     4.185888644778E-10 2.580000000000E+02 2.034000000000E+03 0.000000000000E+00
     3.120000000000E+00 0.000000000000E+00-8.614733815193E-09 0.000000000000E+00
     5.803000000000E+05 0.000000000000E+00 0.000000000000E+00 0.000000000000E+00
E11 2019 01 05 17 00 00 5.719076027162E-03 1.008970684779E-12 0.000000000000E+00
     7.000000000000E+01-1.967812500000E+02 2.725827827385E-09-3.062501204782E+00
    -9.058043360710E-06 2.373887691647E-04 2.734363079071E-06 5.440607971191E+03
     5.796000000000E+05 4.842877388000E-08-7.400318610003E-01 3.352761268616E-08
     9.819832530755E-01 2.921562500000E+02-3.572406172828E-01-5.674522080907E-09
    -2.750114553310E-10 2.580000000000E+02 2.034000000000E+03 0.000000000000E+00
     3.120000000000E+00 0.000000000000E+00-1.862645149231E-08 0.000000000000E+00
     5.803000000000E+05 0.000000000000E+00 0.000000000000E+00 0.000000000000E+00
E14 2019 01 05 17 00 00 6.464316335041E-03-5.698552740796E-12 0.000000000000E+00
     7.000000000000E+01-1.310312500000E+02 5.832742957156E-09 2.901111720937E+00
    -5.248934030533E-06 1.664063116768E-01-1.464970409870E-05 5.289372173309E+03
     5.796000000000E+05 2.358108758926E-06-1.340433925973E+00-3.390014171600E-07
     8.825553953004E-01 6.937500000000E+02 1.452719726236E+00-6.237759827735E-09
     3.571577341961E-13 2.580000000000E+02 2.034000000000E+03 0.000000000000E+00
     3.120000000000E+00 5.600000000000E+01 3.306195139885E-08 0.000000000000E+00
     5.803000000000E+05 0.000000000000E+00 0.000000000000E+00 0.000000000000E+00
E15 2019 01 05 17 00 00 9.237772901542E-04-1.051603248925E-12 0.000000000000E+00
     7.000000000000E+01-1.751875000000E+02 2.580464629567E-09 2.195616277808E+00
    -8.160248398781E-06 3.786961315200E-04 3.430992364883E-06 5.440605583191E+03
     5.796000000000E+05-2.048909664154E-08-7.453454384007E-01 1.862645149231E-09
     9.851821999473E-01 2.776250000000E+02-1.685192300075E+00-5.546302454331E-09
    -2.485817830005E-10 2.580000000000E+02 2.034000000000E+03 0.000000000000E+00
     3.120000000000E+00 5.600000000000E+01 1.862645149231E-09 0.000000000000E+00
     5.803000000000E+05 0.000000000000E+00 0.000000000000E+00 0.000000000000E+00
E19 2019 01 05 17 00 00-9.354494977742E-06 1.847411112976E-13 0.000000000000E+00
     7.000000000000E+01 2.078125000000E+01 3.739441477033E-09 1.895663437420E-01
     1.030042767525E-06 1.402031630278E-04 4.624947905540E-06 5.440601772308E+03
     5.796000000000E+05 1.862645149231E-09 1.361858650902E+00 1.490116119385E-08
     9.579465742285E-01 2.401250000000E+02 2.228602213176E+00-5.683093866528E-09
     3.760870941085E-10 2.580000000000E+02 2.034000000000E+03 0.000000000000E+00
     3.120000000000E+00 0.000000000000E+00-8.847564458847E-09 0.000000000000E+00
     5.803000000000E+05 0.000000000000E+00 0.000000000000E+00 0.000000000000E+00
E21 2019 01 05 17 00 00-5.129486089572E-04-1.918465386552E-12 0.000000000000E+00
     7.000000000000E+01 1.746875000000E+02 2.404743024342E-09 1.470451140387E+00
     8.182600140572E-06 4.717870615423E-05 1.006945967674E-05 5.440635009766E+03
     5.796000000000E+05 9.313225746155E-09-2.828315294936E+00 1.862645149231E-08
     9.899196992261E-01 1.370000000000E+02-4.186577115970E-01-5.116998857827E-09
    -1.096474243982E-10 2.580000000000E+02 2.034000000000E+03 0.000000000000E+00
     3.120000000000E+00 0.000000000000E+00-2.328306436539E-09 0.000000000000E+00
     5.803000000000E+05 0.000000000000E+00 0.000000000000E+00 0.000000000000E+00
E24 2019 01 05 17 00 00 6.301454268396E-03-1.975308805413E-11 0.000000000000E+00
     7.000000000000E+01 1.768437500000E+02 2.315453590793E-09-1.766566588658E+00
     8.234754204750E-06 4.640645347536E-04 1.179240643978E-05 5.440626596451E+03
     5.796000000000E+05-4.842877388000E-08-2.822237032701E+00-2.607703208923E-08
     9.879231481303E-01 1.001250000000E+02 4.410679298268E-01-5.096283709244E-09
    -1.028614274485E-10 2.580000000000E+02 2.034000000000E+03 0.000000000000E+00
     3.120000000000E+00 0.000000000000E+00 4.284083843231E-08 0.000000000000E+00
     5.803000000000E+05 0.000000000000E+00 0.000000000000E+00 0.000000000000E+00
E25 2019 01 05 17 00 00 1.932756858878E-03-1.138289462688E-11 0.000000000000E+00
     7.000000000000E+01 1.654062500000E+02 2.332240004300E-09-7.177931377311E-01
     7.746741175652E-06 2.200788585469E-04 1.183897256851E-05 5.440638677597E+03
     5.796000000000E+05 1.862645149231E-09-2.828324457192E+00 1.676380634308E-08
     9.899253548674E-01 9.921875000000E+01-1.370457958401E+00-5.124856327980E-09
    -1.192906832215E-10 2.580000000000E+02 2.034000000000E+03 0.000000000000E+00
     3.120000000000E+00 0.000000000000E+00-1.396983861923E-09 0.000000000000E+00
     5.803000000000E+05 0.000000000000E+00 0.000000000000E+00 0.000000000000E+00
